{
  "type": "FeatureCollection",
  "features": [
    {
      "type": "Feature",
      "properties": {
        "norad_id": 39227,
        "name": "ARIRANG-5 (KOMPSAT-5)",
        "group": "resource",
        "lat": 1.9691526876975323,
        "lon": 6.160270059043342,
        "alt_km": 557.5469092197809,
        "timestamp": "2025-12-27T19:21:58.431637+00:00",
        "meta_object_name": "ARIRANG-5 (KOMPSAT-5)",
        "meta_object_id": "2013-042A",
        "meta_epoch": "2025-12-27T12:11:35.863872",
        "meta_mean_motion": 15.04495682,
        "meta_eccentricity": 0.0002898,
        "meta_inclination": 97.6168,
        "meta_ra_of_asc_node": 185.6021,
        "meta_arg_of_pericenter": 31.3364,
        "meta_mean_anomaly": 328.8034,
        "meta_ephemeris_type": 0,
        "meta_classification_type": "U",
        "meta_norad_cat_id": 39227,
        "meta_element_set_no": 999,
        "meta_rev_at_epoch": 67804,
        "meta_bstar": 0.00021124,
        "meta_mean_motion_dot": 2.896e-05,
        "meta_mean_motion_ddot": 0,
        "tle_line1": "1 39227U 13042A   25361.50805398  .00002896  00000+0  21124-3 0  9995",
        "tle_line2": "2 39227  97.6168 185.6021 0002898  31.3364 328.8034 15.04495682678049"
      },
      "geometry": {
        "type": "Point",
        "coordinates": [
          6.160270059043342,
          1.9691526876975323
        ]
      }
    },
    {
      "type": "Feature",
      "properties": {
        "norad_id": 39418,
        "name": "SKYSAT-A",
        "group": "resource",
        "lat": -37.443436013473125,
        "lon": -134.16182982723024,
        "alt_km": 525.0116962162656,
        "timestamp": "2025-12-27T19:21:58.431646+00:00",
        "meta_object_name": "SKYSAT-A",
        "meta_object_id": "2013-066C",
        "meta_epoch": "2025-12-27T02:31:13.632096",
        "meta_mean_motion": 15.11707767,
        "meta_eccentricity": 0.00218076,
        "meta_inclination": 97.4087,
        "meta_ra_of_asc_node": 50.8762,
        "meta_arg_of_pericenter": 185.5174,
        "meta_mean_anomaly": 174.582,
        "meta_ephemeris_type": 0,
        "meta_classification_type": "U",
        "meta_norad_cat_id": 39418,
        "meta_element_set_no": 999,
        "meta_rev_at_epoch": 66247,
        "meta_bstar": 0.00026895435,
        "meta_mean_motion_dot": 4.542e-05,
        "meta_mean_motion_ddot": 0,
        "tle_line1": "1 39418U 13066C   25361.10501889  .00004542  00000+0  26895-3 0  9997",
        "tle_line2": "2 39418  97.4087  50.8762 0021807 185.5174 174.5820 15.11707767662473"
      },
      "geometry": {
        "type": "Point",
        "coordinates": [
          -134.16182982723024,
          -37.443436013473125
        ]
      }
    },
    {
      "type": "Feature",
      "properties": {
        "norad_id": 39419,
        "name": "DUBAISAT-2",
        "group": "resource",
        "lat": -4.778631790533812,
        "lon": 171.12499973665058,
        "alt_km": 543.0274544257209,
        "timestamp": "2025-12-27T19:21:58.431655+00:00",
        "meta_object_name": "DUBAISAT-2",
        "meta_object_id": "2013-066D",
        "meta_epoch": "2025-12-27T12:10:52.008096",
        "meta_mean_motion": 15.08502766,
        "meta_eccentricity": 0.0009623,
        "meta_inclination": 97.4468,
        "meta_ra_of_asc_node": 351.4612,
        "meta_arg_of_pericenter": 263.5584,
        "meta_mean_anomaly": 96.4549,
        "meta_ephemeris_type": 0,
        "meta_classification_type": "U",
        "meta_norad_cat_id": 39419,
        "meta_element_set_no": 999,
        "meta_rev_at_epoch": 66049,
        "meta_bstar": 0.00043132,
        "meta_mean_motion_dot": 6.674e-05,
        "meta_mean_motion_ddot": 0,
        "tle_line1": "1 39419U 13066D   25361.50754639  .00006674  00000+0  43132-3 0  9996",
        "tle_line2": "2 39419  97.4468 351.4612 0009623 263.5584  96.4549 15.08502766660493"
      },
      "geometry": {
        "type": "Point",
        "coordinates": [
          171.12499973665058,
          -4.778631790533812
        ]
      }
    },
    {
      "type": "Feature",
      "properties": {
        "norad_id": 39574,
        "name": "GPM-CORE",
        "group": "resource",
        "lat": 11.913249040476257,
        "lon": -23.43413153109332,
        "alt_km": 432.1117435933038,
        "timestamp": "2025-12-27T19:21:58.431664+00:00",
        "meta_object_name": "GPM-CORE",
        "meta_object_id": "2014-009C",
        "meta_epoch": "2025-12-27T12:25:51.684384",
        "meta_mean_motion": 15.44704144,
        "meta_eccentricity": 0.0008973,
        "meta_inclination": 64.9729,
        "meta_ra_of_asc_node": 163.1902,
        "meta_arg_of_pericenter": 252.11,
        "meta_mean_anomaly": 107.9062,
        "meta_ephemeris_type": 0,
        "meta_classification_type": "U",
        "meta_norad_cat_id": 39574,
        "meta_element_set_no": 999,
        "meta_rev_at_epoch": 67129,
        "meta_bstar": 0.00021328,
        "meta_mean_motion_dot": 9.782e-05,
        "meta_mean_motion_ddot": 0,
        "tle_line1": "1 39574U 14009C   25361.51795931  .00009782  00000+0  21328-3 0  9993",
        "tle_line2": "2 39574  64.9729 163.1902 0008973 252.1100 107.9062 15.44704144671291"
      },
      "geometry": {
        "type": "Point",
        "coordinates": [
          -23.43413153109332,
          11.913249040476257
        ]
      }
    },
    {
      "type": "Feature",
      "properties": {
        "norad_id": 39634,
        "name": "SENTINEL-1A",
        "group": "resource",
        "lat": 26.386524120494983,
        "lon": 2.733130303164977,
        "alt_km": 694.2922462602128,
        "timestamp": "2025-12-27T19:21:58.431673+00:00",
        "meta_object_name": "SENTINEL-1A",
        "meta_object_id": "2014-016A",
        "meta_epoch": "2025-12-27T12:39:41.444928",
        "meta_mean_motion": 14.59200802,
        "meta_eccentricity": 0.0001282,
        "meta_inclination": 98.1807,
        "meta_ra_of_asc_node": 6.5504,
        "meta_arg_of_pericenter": 83.5251,
        "meta_mean_anomaly": 276.6095,
        "meta_ephemeris_type": 0,
        "meta_classification_type": "U",
        "meta_norad_cat_id": 39634,
        "meta_element_set_no": 999,
        "meta_rev_at_epoch": 62498,
        "meta_bstar": 6.7173e-05,
        "meta_mean_motion_dot": 2.71e-06,
        "meta_mean_motion_ddot": 0,
        "tle_line1": "1 39634U 14016A   25361.52756302  .00000271  00000+0  67173-4 0  9991",
        "tle_line2": "2 39634  98.1807   6.5504 0001282  83.5251 276.6095 14.59200802624982"
      },
      "geometry": {
        "type": "Point",
        "coordinates": [
          2.733130303164977,
          26.386524120494983
        ]
      }
    },
    {
      "type": "Feature",
      "properties": {
        "norad_id": 39731,
        "name": "KAZEOSAT 1",
        "group": "resource",
        "lat": 26.16052059349601,
        "lon": -102.49246821293735,
        "alt_km": 750.2480058732135,
        "timestamp": "2025-12-27T19:21:58.431682+00:00",
        "meta_object_name": "KAZEOSAT 1",
        "meta_object_id": "2014-024A",
        "meta_epoch": "2025-12-27T11:59:46.317696",
        "meta_mean_motion": 14.42071688,
        "meta_eccentricity": 0.0001259,
        "meta_inclination": 98.3411,
        "meta_ra_of_asc_node": 73.0748,
        "meta_arg_of_pericenter": 96.0245,
        "meta_mean_anomaly": 264.1088,
        "meta_ephemeris_type": 0,
        "meta_classification_type": "U",
        "meta_norad_cat_id": 39731,
        "meta_element_set_no": 999,
        "meta_rev_at_epoch": 61381,
        "meta_bstar": 0.00016802,
        "meta_mean_motion_dot": 5.09e-06,
        "meta_mean_motion_ddot": 0,
        "tle_line1": "1 39731U 14024A   25361.49984164  .00000509  00000+0  16802-3 0  9999",
        "tle_line2": "2 39731  98.3411  73.0748 0001259  96.0245 264.1088 14.42071688613812"
      },
      "geometry": {
        "type": "Point",
        "coordinates": [
          -102.49246821293735,
          26.16052059349601
        ]
      }
    },
    {
      "type": "Feature",
      "properties": {
        "norad_id": 39766,
        "name": "ALOS-2",
        "group": "resource",
        "lat": -79.44874072477818,
        "lon": -131.9366622245596,
        "alt_km": 639.2902648748532,
        "timestamp": "2025-12-27T19:21:58.431691+00:00",
        "meta_object_name": "ALOS-2",
        "meta_object_id": "2014-029A",
        "meta_epoch": "2025-12-27T13:18:41.418720",
        "meta_mean_motion": 14.79473689,
        "meta_eccentricity": 0.0001441,
        "meta_inclination": 97.9213,
        "meta_ra_of_asc_node": 96.1896,
        "meta_arg_of_pericenter": 100.6605,
        "meta_mean_anomaly": 259.4769,
        "meta_ephemeris_type": 0,
        "meta_classification_type": "U",
        "meta_norad_cat_id": 39766,
        "meta_element_set_no": 999,
        "meta_rev_at_epoch": 62620,
        "meta_bstar": 0.00078794,
        "meta_mean_motion_dot": 5.838e-05,
        "meta_mean_motion_ddot": 0,
        "tle_line1": "1 39766U 14029A   25361.55464605  .00005838  00000+0  78794-3 0  9990",
        "tle_line2": "2 39766  97.9213  96.1896 0001441 100.6605 259.4769 14.79473689626207"
      },
      "geometry": {
        "type": "Point",
        "coordinates": [
          -131.9366622245596,
          -79.44874072477818
        ]
      }
    }
  ]
}